start=new Date('2022-09-25T00:00:00.000Z').valueOf();
sats=[{"DECAY_DATE":null,"REF_FRAME":"TEME","ELEMENT_SET_NO":"999","OBJECT_ID":"2021-027L","MEAN_MOTION_DDOT":"0.0000000000000","APOAPSIS":"548.209","INCLINATION":"53.0553","COUNTRY_CODE":"US","NORAD_CAT_ID":"48102","GP_ID":"213403272","EPHEMERIS_TYPE":"0","RCS_SIZE":"LARGE","RA_OF_ASC_NODE":"56.9365","SITE":"AFETR","MEAN_ELEMENT_THEORY":"SGP4","PERIOD":"95.592","CENTER_NAME":"EARTH","ARG_OF_PERICENTER":"82.8037","MEAN_ANOMALY":"277.3117","PERIAPSIS":"546.205","LAUNCH_DATE":"2021-04-07","OBJECT_NAME":"STARLINK-2437","TLE_LINE1":"1 48102U 21027L   22267.69599932  .00001415  00000-0  11388-3 0  9993","EPOCH":"2022-09-24T16:42:14.341248","CLASSIFICATION_TYPE":"U","BSTAR":"0.00011388000000","OBJECT_TYPE":"PAYLOAD","MEAN_MOTION":"15.06402255","MEAN_MOTION_DOT":"0.00001415","REV_AT_EPOCH":"8248","FILE":"3582616","TLE_LINE2":"2 48102  53.0553  56.9365 0001447  82.8037 277.3117 15.06402255 82486","ECCENTRICITY":"0.00014470","TIME_SYSTEM":"UTC","SEMIMAJOR_AXIS":"6925.342"},{"LAUNCH_DATE":"2021-04-07","TLE_LINE1":"1 48103U 21027M   22267.70611167  .00001631  00000-0  12839-3 0  9993","EPOCH":"2022-09-24T16:56:48.048288","OBJECT_NAME":"STARLINK-2438","BSTAR":"0.00012839000000","CLASSIFICATION_TYPE":"U","MEAN_MOTION":"15.06396281","OBJECT_TYPE":"PAYLOAD","SITE":"AFETR","PERIOD":"95.592","CENTER_NAME":"EARTH","ARG_OF_PERICENTER":"78.5049","MEAN_ELEMENT_THEORY":"SGP4","MEAN_ANOMALY":"281.6108","PERIAPSIS":"546.189","TLE_LINE2":"2 48103  53.0569  56.9105 0001496  78.5049 281.6108 15.06396281 82484","FILE":"3582616","ECCENTRICITY":"0.00014960","SEMIMAJOR_AXIS":"6925.360","TIME_SYSTEM":"UTC","REV_AT_EPOCH":"8248","MEAN_MOTION_DOT":"0.00001631","OBJECT_ID":"2021-027M","ELEMENT_SET_NO":"999","MEAN_MOTION_DDOT":"0.0000000000000","APOAPSIS":"548.261","INCLINATION":"53.0569","COUNTRY_CODE":"US","REF_FRAME":"TEME","DECAY_DATE":null,"RA_OF_ASC_NODE":"56.9105","NORAD_CAT_ID":"48103","GP_ID":"213404524","RCS_SIZE":"LARGE","EPHEMERIS_TYPE":"0"},{"REV_AT_EPOCH":"8241","MEAN_MOTION_DOT":"0.00001912","SEMIMAJOR_AXIS":"6925.353","TIME_SYSTEM":"UTC","FILE":"3582616","TLE_LINE2":"2 48104  53.0544  62.1418 0001374  80.5076 279.6068 15.06398627 82413","ECCENTRICITY":"0.00013740","PERIOD":"95.592","MEAN_ELEMENT_THEORY":"SGP4","CENTER_NAME":"EARTH","ARG_OF_PERICENTER":"80.5076","MEAN_ANOMALY":"279.6068","PERIAPSIS":"546.266","SITE":"AFETR","BSTAR":"0.00014721000000","CLASSIFICATION_TYPE":"U","MEAN_MOTION":"15.06398627","OBJECT_TYPE":"PAYLOAD","LAUNCH_DATE":"2021-04-07","TLE_LINE1":"1 48104U 21027N   22267.64946902  .00001912  00000-0  14721-3 0  9999","EPOCH":"2022-09-24T15:35:14.123328","OBJECT_NAME":"STARLINK-2439","RCS_SIZE":"LARGE","EPHEMERIS_TYPE":"0","NORAD_CAT_ID":"48104","GP_ID":"213404274","RA_OF_ASC_NODE":"62.1418","REF_FRAME":"TEME","DECAY_DATE":null,"INCLINATION":"53.0544","COUNTRY_CODE":"US","ELEMENT_SET_NO":"999","OBJECT_ID":"2021-027N","APOAPSIS":"548.169","MEAN_MOTION_DDOT":"0.0000000000000"},{"COUNTRY_CODE":"US","INCLINATION":"53.0570","APOAPSIS":"548.312","MEAN_MOTION_DDOT":"0.0000000000000","OBJECT_ID":"2021-027P","ELEMENT_SET_NO":"999","REF_FRAME":"TEME","DECAY_DATE":null,"RA_OF_ASC_NODE":"7.5656","RCS_SIZE":"LARGE","EPHEMERIS_TYPE":"0","GP_ID":"213369626","NORAD_CAT_ID":"48105","MEAN_MOTION":"15.06394556","OBJECT_TYPE":"PAYLOAD","BSTAR":"0.00002190400000","CLASSIFICATION_TYPE":"U","EPOCH":"2022-09-24T13:21:52.833600","TLE_LINE1":"1 48105U 21027P   22267.55686150  .00000045  00000-0  21904-4 0  9994","OBJECT_NAME":"STARLINK-2440","LAUNCH_DATE":"2021-04-07","PERIAPSIS":"546.149","CENTER_NAME":"EARTH","PERIOD":"95.592","MEAN_ELEMENT_THEORY":"SGP4","MEAN_ANOMALY":"289.3587","ARG_OF_PERICENTER":"70.7571","SITE":"AFETR","SEMIMAJOR_AXIS":"6925.365","TIME_SYSTEM":"UTC","ECCENTRICITY":"0.00015620","TLE_LINE2":"2 48105  53.0570   7.5656 0001562  70.7571 289.3587 15.06394556 83164","FILE":"3582188","REV_AT_EPOCH":"8316","MEAN_MOTION_DOT":"0.00000045"},{"REV_AT_EPOCH":"8249","MEAN_MOTION_DOT":"0.00001484","SEMIMAJOR_AXIS":"6925.332","TIME_SYSTEM":"UTC","TLE_LINE2":"2 48106  53.0559  56.7488 0001316  78.7207 281.3929 15.06405534 82498","FILE":"3582616","ECCENTRICITY":"0.00013160","PERIOD":"95.592","CENTER_NAME":"EARTH","ARG_OF_PERICENTER":"78.7207","MEAN_ELEMENT_THEORY":"SGP4","MEAN_ANOMALY":"281.3929","PERIAPSIS":"546.285","SITE":"AFETR","BSTAR":"0.00011848000000","CLASSIFICATION_TYPE":"U","MEAN_MOTION":"15.06405534","OBJECT_TYPE":"PAYLOAD","LAUNCH_DATE":"2021-04-07","EPOCH":"2022-09-24T17:45:56.309184","TLE_LINE1":"1 48106U 21027Q   22267.74023506  .00001484  00000-0  11848-3 0  9999","OBJECT_NAME":"STARLINK-2442","RCS_SIZE":"LARGE","EPHEMERIS_TYPE":"0","NORAD_CAT_ID":"48106","GP_ID":"213403773","RA_OF_ASC_NODE":"56.7488","REF_FRAME":"TEME","DECAY_DATE":null,"INCLINATION":"53.0559","COUNTRY_CODE":"US","OBJECT_ID":"2021-027Q","ELEMENT_SET_NO":"999","MEAN_MOTION_DDOT":"0.0000000000000","APOAPSIS":"548.108"},{"NORAD_CAT_ID":"48107","GP_ID":"213404024","RCS_SIZE":"LARGE","EPHEMERIS_TYPE":"0","RA_OF_ASC_NODE":"56.9690","DECAY_DATE":null,"REF_FRAME":"TEME","ELEMENT_SET_NO":"999","OBJECT_ID":"2021-027R","MEAN_MOTION_DDOT":"0.0000000000000","APOAPSIS":"548.277","INCLINATION":"53.0555","COUNTRY_CODE":"US","REV_AT_EPOCH":"8248","MEAN_MOTION_DOT":"0.00003568","TLE_LINE2":"2 48107  53.0555  56.9690 0001539  79.5383 280.5779 15.06400906 82484","FILE":"3582616","ECCENTRICITY":"0.00015390","SEMIMAJOR_AXIS":"6925.346","TIME_SYSTEM":"UTC","SITE":"AFETR","MEAN_ANOMALY":"280.5779","PERIOD":"95.592","MEAN_ELEMENT_THEORY":"SGP4","CENTER_NAME":"EARTH","ARG_OF_PERICENTER":"79.5383","PERIAPSIS":"546.145","LAUNCH_DATE":"2021-04-07","EPOCH":"2022-09-24T16:31:36.964128","TLE_LINE1":"1 48107U 21027R   22267.68862227  .00003568  00000-0  25828-3 0  9992","OBJECT_NAME":"STARLINK-2443","BSTAR":"0.00025828000000","CLASSIFICATION_TYPE":"U","MEAN_MOTION":"15.06400906","OBJECT_TYPE":"PAYLOAD"},{"BSTAR":"0.00012009000000","CLASSIFICATION_TYPE":"U","MEAN_MOTION":"15.06402522","OBJECT_TYPE":"PAYLOAD","LAUNCH_DATE":"2021-04-07","TLE_LINE1":"1 48108U 21027S   22267.72824785  .00001508  00000-0  12009-3 0  9994","EPOCH":"2022-09-24T17:28:40.614240","OBJECT_NAME":"STARLINK-2444","MEAN_ELEMENT_THEORY":"SGP4","PERIOD":"95.592","ARG_OF_PERICENTER":"73.7548","MEAN_ANOMALY":"286.3590","CENTER_NAME":"EARTH","PERIAPSIS":"546.269","SITE":"AFETR","SEMIMAJOR_AXIS":"6925.341","TIME_SYSTEM":"UTC","FILE":"3582616","TLE_LINE2":"2 48108  53.0548  66.7902 0001353  73.7548 286.3590 15.06402522 82341","ECCENTRICITY":"0.00013530","REV_AT_EPOCH":"8234","MEAN_MOTION_DOT":"0.00001508","INCLINATION":"53.0548","COUNTRY_CODE":"US","OBJECT_ID":"2021-027S","ELEMENT_SET_NO":"999","MEAN_MOTION_DDOT":"0.0000000000000","APOAPSIS":"548.143","DECAY_DATE":null,"REF_FRAME":"TEME","RA_OF_ASC_NODE":"66.7902","RCS_SIZE":"LARGE","EPHEMERIS_TYPE":"0","NORAD_CAT_ID":"48108","GP_ID":"213404775"},{"SITE":"AFETR","PERIAPSIS":"546.196","ARG_OF_PERICENTER":"67.7186","PERIOD":"95.592","CENTER_NAME":"EARTH","MEAN_ELEMENT_THEORY":"SGP4","MEAN_ANOMALY":"292.3958","OBJECT_NAME":"STARLINK-2445","TLE_LINE1":"1 48109U 21027T   22267.74207673  .00000879  00000-0  77864-4 0  9999","EPOCH":"2022-09-24T17:48:35.429472","LAUNCH_DATE":"2021-04-07","OBJECT_TYPE":"PAYLOAD","MEAN_MOTION":"15.06401807","CLASSIFICATION_TYPE":"U","BSTAR":"0.00007786400000","MEAN_MOTION_DOT":"0.00000879","REV_AT_EPOCH":"8221","ECCENTRICITY":"0.00014620","FILE":"3582616","TLE_LINE2":"2 48109  53.0556  76.7261 0001462  67.7186 292.3958 15.06401807 82218","TIME_SYSTEM":"UTC","SEMIMAJOR_AXIS":"6925.343","DECAY_DATE":null,"REF_FRAME":"TEME","MEAN_MOTION_DDOT":"0.0000000000000","APOAPSIS":"548.221","ELEMENT_SET_NO":"999","OBJECT_ID":"2021-027T","COUNTRY_CODE":"US","INCLINATION":"53.0556","GP_ID":"213403023","NORAD_CAT_ID":"48109","EPHEMERIS_TYPE":"0","RCS_SIZE":"LARGE","RA_OF_ASC_NODE":"76.7261"},{"LAUNCH_DATE":"2021-04-07","OBJECT_NAME":"STARLINK-2447","TLE_LINE1":"1 48110U 21027U   22267.84988993  .00000885  00000-0  78303-4 0  9999","EPOCH":"2022-09-24T20:23:50.489952","CLASSIFICATION_TYPE":"U","BSTAR":"0.00007830300000","OBJECT_TYPE":"PAYLOAD","MEAN_MOTION":"15.06398843","SITE":"AFETR","CENTER_NAME":"EARTH","PERIOD":"95.592","ARG_OF_PERICENTER":"83.9330","MEAN_ANOMALY":"276.1813","MEAN_ELEMENT_THEORY":"SGP4","PERIAPSIS":"546.281","FILE":"3582616","TLE_LINE2":"2 48110  53.0553  66.2410 0001352  83.9330 276.1813 15.06398843 82378","ECCENTRICITY":"0.00013520","TIME_SYSTEM":"UTC","SEMIMAJOR_AXIS":"6925.352","MEAN_MOTION_DOT":"0.00000885","REV_AT_EPOCH":"8237","OBJECT_ID":"2021-027U","ELEMENT_SET_NO":"999","APOAPSIS":"548.153","MEAN_MOTION_DDOT":"0.0000000000000","INCLINATION":"53.0553","COUNTRY_CODE":"US","REF_FRAME":"TEME","DECAY_DATE":null,"RA_OF_ASC_NODE":"66.2410","NORAD_CAT_ID":"48110","GP_ID":"213403273","EPHEMERIS_TYPE":"0","RCS_SIZE":"LARGE"},{"INCLINATION":"53.0565","COUNTRY_CODE":"US","OBJECT_ID":"2021-027V","ELEMENT_SET_NO":"999","MEAN_MOTION_DDOT":"0.0000000000000","APOAPSIS":"548.117","REF_FRAME":"TEME","DECAY_DATE":null,"RA_OF_ASC_NODE":"66.2572","RCS_SIZE":"LARGE","EPHEMERIS_TYPE":"0","NORAD_CAT_ID":"48111","GP_ID":"213404525","BSTAR":"0.00009293200000","CLASSIFICATION_TYPE":"U","MEAN_MOTION":"15.06407438","OBJECT_TYPE":"PAYLOAD","LAUNCH_DATE":"2021-04-07","EPOCH":"2022-09-24T20:13:12.721440","TLE_LINE1":"1 48111U 21027V   22267.84250835  .00001103  00000-0  92932-4 0  9995","OBJECT_NAME":"STARLINK-2448","PERIOD":"95.592","CENTER_NAME":"EARTH","MEAN_ELEMENT_THEORY":"SGP4","ARG_OF_PERICENTER":"86.1652","MEAN_ANOMALY":"273.9490","PERIAPSIS":"546.264","SITE":"AFETR","SEMIMAJOR_AXIS":"6925.326","TIME_SYSTEM":"UTC","FILE":"3582616","TLE_LINE2":"2 48111  53.0565  66.2572 0001338  86.1652 273.9490 15.06407438 82374","ECCENTRICITY":"0.00013380","REV_AT_EPOCH":"8237","MEAN_MOTION_DOT":"0.00001103"}];
